ONEWEB-0111             
1 47261U 20100D   26040.96019625 -.00000275  00000+0 -79937-3 0  9996
2 47261  87.8957  15.9098 0001812  76.1895 283.9435 13.12442079247871
ONEWEB-0114             
1 47262U 20100E   26040.83824278  .00000358  00000+0  95976-3 0  9992
2 47262  87.8958  15.9297 0002144  87.7547 272.3827 13.12444176247816
ONEWEB-0117             
1 47263U 20100F   26040.82976163  .00000313  00000+0  83586-3 0  9998
2 47263  87.8959  15.9263 0001820  84.6799 275.4538 13.12444030247829
ONEWEB-0118             
1 47264U 20100G   26040.93986539 -.00000030  00000+0 -11978-3 0  9993
2 47264  87.8962  15.9056 0002227  83.5539 276.5843 13.12443421248034
ONEWEB-0119             
1 47265U 20100H   26040.96528871 -.00000171  00000+0 -51101-3 0  9996
2 47265  87.8948  15.9295 0001872  82.4991 277.6350 13.12443664248011
ONEWEB-0120             
1 47266U 20100J   26040.83667606  .00000381  00000+0  10229-2 0  9999
2 47266  87.8952  15.9558 0001908  85.5635 274.5712 13.12443669248022
ONEWEB-0121             
1 47267U 20100K   26040.90091335  .00000202  00000+0  52551-3 0  9995
2 47267  87.8959  15.9168 0001627  82.3232 277.8081 13.12444173247949
ONEWEB-0122             
1 47268U 20100L   26040.89498095  .00000006  00000+0 -17524-4 0  9993
2 47268  87.8962  15.9199 0001794  89.3010 270.8324 13.12443911247856
ONEWEB-0123             
1 47269U 20100M   26040.96698212 -.00000049  00000+0 -17031-3 0  9995
2 47269  87.8948  15.9279 0001956  81.1416 278.9934 13.12443642248005
ONEWEB-0124             
1 47270U 20100N   26040.95680468 -.00000363  00000+0 -10447-2 0  9992
2 47270  87.8950  15.9342 0001784  79.5212 280.6118 13.12442670247884
ONEWEB-0125             
1 47271U 20100P   26040.93479419  .00000019  00000+0  17810-4 0  9992
2 47271  87.8961  15.9070 0001935  75.4010 284.7333 13.12441235247941
ONEWEB-0126             
1 47272U 20100Q   26040.95525841 -.00000376  00000+0 -10804-2 0  9998
2 47272  87.8961  15.9257 0001931  85.0631 275.0718 13.12444065248014
ONEWEB-0127             
1 47273U 20100R   26040.84501246  .00000292  00000+0  77611-3 0  9995
2 47273  87.8949  15.9546 0001883  87.7440 272.3904 13.12443185248025
ONEWEB-0128             
1 47274U 20100S   26040.94325578 -.00000244  00000+0 -71399-3 0  9995
2 47274  87.8951  15.9492 0001559  90.0804 270.0503 13.12442675248056
ONEWEB-0129             
1 47275U 20100T   26040.84669446  .00000314  00000+0  83871-3 0  9994
2 47275  87.8961  15.9294 0002605 106.2566 253.8850 13.12443735247978
ONEWEB-0130             
1 47276U 20100U   26040.95003110 -.00000360  00000+0 -10357-2 0  9998
2 47276  87.8960  15.9028 0001825  88.2477 271.8861 13.12442210247953
ONEWEB-0131             
1 47277U 20100V   26040.94664342 -.00000312  00000+0 -90155-3 0  9990
2 47277  87.8957  15.9340 0001804  84.5858 275.5477 13.12444082247993
ONEWEB-0132             
1 47278U 20100W   26040.89922797  .00000119  00000+0  29524-3 0  9991
2 47278  87.8952  15.9427 0001752  84.6432 275.4897 13.12442502247884
ONEWEB-0133             
1 47279U 20100X   26040.83978405  .00000371  00000+0  99541-3 0  9999
2 47279  87.8960  15.9173 0001698  83.2842 276.8480 13.12443300248039
ONEWEB-0134             
1 47280U 20100Y   26040.96189835 -.00000277  00000+0 -80503-3 0  9991
2 47280  87.8962  15.8903 0001722  91.1038 269.0288 13.12443585248020
ONEWEB-0135             
1 47281U 20100Z   26040.93309989  .00000049  00000+0  10090-3 0  9992
2 47281  87.8962  15.9336 0001537  86.8926 273.2378 13.12442350248041
ONEWEB-0136             
1 47282U 20100AA  26040.95172304 -.00000401  00000+0 -11514-2 0  9999
2 47282  87.8959  15.9005 0001707  94.8200 265.3124 13.12444124247977
ONEWEB-0137             
1 47283U 20100AB  26040.83315047  .00000346  00000+0  92557-3 0  9993
2 47283  87.8961  15.9296 0001957  82.4337 277.7014 13.12442845247865
ONEWEB-0138             
1 47284U 20100AC  26040.96358891 -.00000215  00000+0 -63282-3 0  9992
2 47284  87.8962  15.9136 0001827  90.4426 269.6912 13.12443225247965
ONEWEB-0139             
1 47285U 20100AD  26040.85191795  .00000195  00000+0  50733-3 0  9991
2 47285  87.8960  15.9229 0001844  86.5787 273.5552 13.12442310248028
ONEWEB-0140             
1 47286U 20100AE  26040.95850784 -.00000361  00000+0 -10384-2 0  9997
2 47286  87.8961  15.8901 0001676  80.1816 279.9501 13.12443532248001
ONEWEB-0141             
1 47287U 20100AF  26040.85163728  .00000198  00000+0  51459-3 0  9997
2 47287  87.8960  15.9182 0002124  80.7312 279.4056 13.12442743247977
ONEWEB-0142             
1 47288U 20100AG  26040.84007511  .00000364  00000+0  97584-3 0  9998
2 47288  87.8959  15.9450 0002249  87.8961 272.2425 13.12441616247968
ONEWEB-0143             
1 47289U 20100AH  26040.85007882  .00000222  00000+0  58146-3 0  9995
2 47289  87.8962  15.9388 0001847  82.1012 278.0326 13.12443563247946
ONEWEB-0144             
1 47290U 20100AJ  26040.89752499  .00000096  00000+0  23118-3 0  9992
2 47290  87.8961  15.8985 0001988  94.0739 266.0617 13.12443638247878
ONEWEB-0145             
1 47291U 20100AK  26040.94495659 -.00000275  00000+0 -79859-3 0  9995
2 47291  87.8961  15.9281 0001891  87.6877 272.4468 13.12442380248074
ONEWEB-0146             
1 47292U 20100AL  26040.94156500 -.00000214  00000+0 -62937-3 0  9997
2 47292  87.8960  15.9139 0001627  76.6000 283.5310 13.12442841247989
ONEWEB-0147             
1 47293U 20100AM  26040.83145766  .00000325  00000+0  86896-3 0  9999
2 47293  87.8961  15.9154 0001637  90.3460 269.7856 13.12443031247862
YAOGAN-33 01            
1 47302U 20103A   26040.92853959  .00000543  00000+0  12570-3 0  9993
2 47302  98.0602 286.4287 0003228 149.9820 210.1566 14.58800979272753
WEINA 2                 
1 47303U 20103B   26040.98038356  .00001236  00000+0  24070-3 0  9994
2 47303  98.0698 292.7088 0000990 218.1054 142.0079 14.64781868273103
TURKSAT 5A              
1 47306U 21001A   26040.91989000  .00000163  00000+0  00000+0 0  9990
2 47306   0.0235  89.9573 0000220 329.8596  82.2279  1.00272583 18691
TIANTONG-1 3            
1 47321U 21003A   26040.92257560 -.00000144  00000+0  00000+0 0  9999
2 47321   1.8767 331.8716 0006832 333.2900 248.4653  1.00273813 18686
GMS-T                   
1 47346U 21004A   26040.95023630  .00000022  00000+0  35045-4 0  9995
2 47346  90.1147 240.3287 0003658  54.6723 305.4750 13.16655080242853
STARLINK-2017           
1 47351U 21005C   26040.87874419  .00003349  00000+0  12829-3 0  9991
2 47351  53.1587 142.8441 0001311  72.0655 288.0488 15.29365522279462
STARLINK-2034           
1 47352U 21005D   26040.67440273  .00001728  00000+0  70445-4 0  9995
2 47352  53.1598 182.8692 0001245  68.4191 291.6942 15.30200020278880
STARLINK-2045           
1 47353U 21005E   26040.91670139 -.00019405  00000+0 -64496-3 0  9990
2 47353  53.1599 129.6618 0001208  74.3483 258.1172 15.30189419  5731
STARLINK-2046           
1 47354U 21005F   26040.62184203  .00001577  00000+0  12477-3 0  9992
2 47354  53.0550 153.1598 0001371  95.9750 264.1395 15.06400819279295
STARLINK-2047           
1 47355U 21005G   26040.52548147  .00002896  00000+0  21322-3 0  9997
2 47355  53.0526 138.0562 0001476  73.7473 286.3678 15.06398257279498
STARLINK-2049           
1 47356U 21005H   26040.83695182  .00000793  00000+0  72094-4 0  9991
2 47356  53.0550 156.6559 0001222  93.3272 266.7857 15.06399444279267
STARLINK-2050           
1 47357U 21005J   26040.62045118 -.00000696  00000+0 -27843-4 0  9993
2 47357  53.0571 188.0510 0001485  97.8294 262.2864 15.06399289278806
STARLINK-2055           
1 47358U 21005K   26040.58166674  .00000278  00000+0  37573-4 0  9995
2 47358  53.0553 157.7936 0001513  65.8265 294.2882 15.06399975279221
STARLINK-2071           
1 47361U 21005N   26040.58998432  .00000944  00000+0  82238-4 0  9992
2 47361  53.0563 157.7655 0001516  69.6407 290.4744 15.06403384279222
STARLINK-2076           
1 47362U 21005P   26040.63513699 -.00000189  00000+0  62015-5 0  9991
2 47362  53.0562 187.5579 0001242  93.4608 266.6523 15.06400045278817
STARLINK-2081           
1 47366U 21005T   26040.73096681  .00002915  00000+0  21444-3 0  9990
2 47366  53.0551 187.1299 0001250  95.6275 264.4856 15.06409238278826
STARLINK-2082           
1 47367U 21005U   26040.69042932 -.00000278  00000+0  22606-6 0  9991
2 47367  53.0567 187.3138 0001228  75.8028 284.3097 15.06395232278825
STARLINK-2084           
1 47368U 21005V   26040.68305706 -.00000191  00000+0  60466-5 0  9991
2 47368  53.0564 187.3459 0001217  74.5467 285.5656 15.06396901278828
STARLINK-2088           
1 47371U 21005Y   26040.69779280  .00002026  00000+0  15481-3 0  9991
2 47371  53.0566 187.2795 0001290  82.3841 277.7295 15.06406770278828
STARLINK-2092           
1 47373U 21005AA  26040.69411229  .00002631  00000+0  19541-3 0  9992
2 47373  53.0565 187.2959 0001258  87.7578 272.3555 15.06405255278828
STARLINK-2093           
1 47374U 21005AB  26040.91670139  .00097885  00000+0  13550-2 0  9993
2 47374  53.0543 180.7640 0001468  41.4829 279.3344 15.56339909  5838
STARLINK-2094           
1 47375U 21005AC  26040.71990377 -.00000974  00000+0 -46486-4 0  9992
2 47375  53.0558 187.1798 0001067  87.1243 272.9868 15.06420877278823
STARLINK-2096           
1 47376U 21005AD  26040.92264595  .00001846  00000+0  14284-3 0  9999
2 47376  53.0550 186.2714 0001442  70.3866 289.7278 15.06391057278857
STARLINK-2097           
1 47377U 21005AE  26040.70885548  .00001490  00000+0  11893-3 0  9991
2 47377  53.0563 187.2306 0001167  89.2672 270.8451 15.06396962278829
STARLINK-2098           
1 47378U 21005AF  26040.52311813  .00004481  00000+0  16329-3 0  9993
2 47378  53.1577 145.0009 0001334  81.7812 278.3340 15.30206695279402
STARLINK-2099           
1 47379U 21005AG  26040.59781820 -.00000914  00000+0 -18727-4 0  9994
2 47379  53.1604 144.0237 0001548  76.2901 283.8272 15.30190846279428
